ONEWEB-0018             
1 45434U 20020L   25220.85892393  .00000051  00000+0  10820-3 0  9991
2 45434  87.8793  83.3096 0001774  80.9341 279.1987 13.11413900261697
ONEWEB-0083             
1 45435U 20020M   25220.84874900  .00000424  00000+0  11591-2 0  9994
2 45435  87.8802  83.2983 0001649  80.8233 279.3081 13.11416343261739
ONEWEB-0095             
1 45436U 20020N   25220.68779477  .00000575  00000+0  15868-2 0  9998
2 45436  87.8790  83.3533 0001272 104.4494 255.6775 13.11419002261712
ONEWEB-0092             
1 45437U 20020P   25220.88857921 -.00000497  00000+0 -14383-2 0  9998
2 45437  87.8800  83.3019 0001609  88.8992 271.2320 13.11417747261855
ONEWEB-0085             
1 45438U 20020Q   25221.07120932 -.00002715  00000+0 -77586-2 0  9995
2 45438  87.8775  83.2777 0001663  88.7504 271.3814 13.10871088261776
ONEWEB-0096             
1 45439U 20020R   25220.85044918  .00000369  00000+0  10056-2 0  9990
2 45439  87.8806  83.2898 0001935  81.1785 278.9562 13.11413987261725
ONEWEB-0037             
1 45440U 20020S   25220.67836565  .00000469  00000+0  12863-2 0  9998
2 45440  87.8811  83.2888 0001684  84.5196 275.6124 13.11418608261730
ONEWEB-0042             
1 45441U 20020T   25220.68751957  .00000358  00000+0  97430-3 0  9992
2 45441  87.8799  83.3312 0001754  84.4215 275.7113 13.11418724261703
